{
  "norad_id": 57647,
  "name": "STARLINK-30286",
  "history": [
    {
      "epoch": "2026-03-28T18:01:37.642368Z",
      "apogee_km": 483.8395093055251,
      "perigee_km": 482.21478563540404,
      "latitude_deg": -1.4856322211942228e-05,
      "longitude_deg": -111.85084254051897,
      "height_km": 482.69170955142914,
      "semi_major_axis_km": 6861.164147470464,
      "eccentricity": 0.0001184,
      "inclination_deg": 43.0012,
      "raan_deg": 344.7231,
      "arg_perigee_deg": 277.9316,
      "mean_anomaly_deg": 82.1401,
      "mean_motion_rev_day": 15.2758733
    }
  ]
}